CZ-2C R/B               
1 52794U 22058K   25326.53532750  .00027232  00000+0  51160-3 0  9993
2 52794  50.1880 146.4764 0047779 114.9275 245.6669 15.47088922193508
CZ-2C R/B               
1 54039U 22132E   25326.51497733  .00027031  00000+0  42632-3 0  9990
2 54039  97.2944 322.3540 0023698 123.2463 237.1066 15.53181928173690
GSLV R/B                
1 54149U 22138AN  25326.12050729  .00003079  00000+0  27114-3 0  9999
2 54149  87.3846 202.3761 0021549 175.5930 184.5495 14.95977423167846
XRISM                   
1 57800U 23137A   25326.01455909  .00006780  00000+0  40059-3 0  9998
2 57800  31.0028 259.3278 0007656  34.1340 325.9789 15.10059073121492
ACS3                    
1 59588U 24077B   25325.51068515  .00027085  00000+0  23825-1 0  9995
2 59588  97.2974 285.8483 0069328  17.3855 342.9657 13.84103631 79204
