CCSDS_OMM_VERS = 2.0
CREATION_DATE  = 
ORIGINATOR     = 

OBJECT_NAME    = CZ-2C R/B
OBJECT_ID      = 2022-058K
CENTER_NAME    = EARTH
REF_FRAME      = TEME
TIME_SYSTEM    = UTC
MEAN_ELEMENT_THEORY = SGP/SGP4

EPOCH          = 2025-11-22T12:50:52.296000
MEAN_MOTION    = 15.47088922
ECCENTRICITY   = .0047779
INCLINATION    = 50.1880
RA_OF_ASC_NODE = 146.4764
ARG_OF_PERICENTER = 114.9275
MEAN_ANOMALY   = 245.6669

EPHEMERIS_TYPE = 0
CLASSIFICATION_TYPE = U
NORAD_CAT_ID   = 52794
ELEMENT_SET_NO = 999
REV_AT_EPOCH   = 19350
BSTAR          = .51160489E-3
MEAN_MOTION_DOT = .27232E-3
MEAN_MOTION_DDOT = 0

CCSDS_OMM_VERS = 2.0
CREATION_DATE  = 
ORIGINATOR     = 

OBJECT_NAME    = CZ-2C R/B
OBJECT_ID      = 2022-132E
CENTER_NAME    = EARTH
REF_FRAME      = TEME
TIME_SYSTEM    = UTC
MEAN_ELEMENT_THEORY = SGP/SGP4

EPOCH          = 2025-11-22T12:21:34.041312
MEAN_MOTION    = 15.53181928
ECCENTRICITY   = .00236982
INCLINATION    = 97.2944
RA_OF_ASC_NODE = 322.3540
ARG_OF_PERICENTER = 123.2463
MEAN_ANOMALY   = 237.1066

EPHEMERIS_TYPE = 0
CLASSIFICATION_TYPE = U
NORAD_CAT_ID   = 54039
ELEMENT_SET_NO = 999
REV_AT_EPOCH   = 17369
BSTAR          = .4263155E-3
MEAN_MOTION_DOT = .27031E-3
MEAN_MOTION_DDOT = 0

CCSDS_OMM_VERS = 2.0
CREATION_DATE  = 
ORIGINATOR     = 

OBJECT_NAME    = GSLV R/B
OBJECT_ID      = 2022-138AN
CENTER_NAME    = EARTH
REF_FRAME      = TEME
TIME_SYSTEM    = UTC
MEAN_ELEMENT_THEORY = SGP/SGP4

EPOCH          = 2025-11-22T02:53:31.829856
MEAN_MOTION    = 14.95977423
ECCENTRICITY   = .00215497
INCLINATION    = 87.3846
RA_OF_ASC_NODE = 202.3761
ARG_OF_PERICENTER = 175.5930
MEAN_ANOMALY   = 184.5495

EPHEMERIS_TYPE = 0
CLASSIFICATION_TYPE = U
NORAD_CAT_ID   = 54149
ELEMENT_SET_NO = 999
REV_AT_EPOCH   = 16784
BSTAR          = .27113905E-3
MEAN_MOTION_DOT = .3079E-4
MEAN_MOTION_DDOT = 0

CCSDS_OMM_VERS = 2.0
CREATION_DATE  = 
ORIGINATOR     = 

OBJECT_NAME    = XRISM
OBJECT_ID      = 2023-137A
CENTER_NAME    = EARTH
REF_FRAME      = TEME
TIME_SYSTEM    = UTC
MEAN_ELEMENT_THEORY = SGP/SGP4

EPOCH          = 2025-11-22T00:20:57.905376
MEAN_MOTION    = 15.10059073
ECCENTRICITY   = .00076566
INCLINATION    = 31.0028
RA_OF_ASC_NODE = 259.3278
ARG_OF_PERICENTER = 34.1340
MEAN_ANOMALY   = 325.9789

EPHEMERIS_TYPE = 0
CLASSIFICATION_TYPE = U
NORAD_CAT_ID   = 57800
ELEMENT_SET_NO = 999
REV_AT_EPOCH   = 12149
BSTAR          = .40058781E-3
MEAN_MOTION_DOT = .678E-4
MEAN_MOTION_DDOT = 0

CCSDS_OMM_VERS = 2.0
CREATION_DATE  = 
ORIGINATOR     = 

OBJECT_NAME    = ACS3
OBJECT_ID      = 2024-077B
CENTER_NAME    = EARTH
REF_FRAME      = TEME
TIME_SYSTEM    = UTC
MEAN_ELEMENT_THEORY = SGP/SGP4

EPOCH          = 2025-11-21T12:15:23.196960
MEAN_MOTION    = 13.84103631
ECCENTRICITY   = .00693287
INCLINATION    = 97.2974
RA_OF_ASC_NODE = 285.8483
ARG_OF_PERICENTER = 17.3855
MEAN_ANOMALY   = 342.9657

EPHEMERIS_TYPE = 0
CLASSIFICATION_TYPE = U
NORAD_CAT_ID   = 59588
ELEMENT_SET_NO = 999
REV_AT_EPOCH   = 7920
BSTAR          = .23825037E-1
MEAN_MOTION_DOT = .27085E-3
MEAN_MOTION_DDOT = 0

